{
  "type": "FeatureCollection",
  "features": [
    {
      "type": "Feature",
      "properties": {
        "norad_id": 31338,
        "name": "FENGYUN 1C DEB",
        "group": "fengyun-1c-debris",
        "lat": 17.24144093630812,
        "lon": -162.74029640978912,
        "alt_km": 791.0054936397864,
        "timestamp": "2025-12-26T03:50:12.375113+00:00",
        "meta_object_name": "FENGYUN 1C DEB",
        "meta_object_id": "1999-025BQS",
        "meta_epoch": "2025-12-24T19:38:38.429376",
        "meta_mean_motion": 14.20844571,
        "meta_eccentricity": 0.00720648,
        "meta_inclination": 98.7165,
        "meta_ra_of_asc_node": 198.6657,
        "meta_arg_of_pericenter": 73.8557,
        "meta_mean_anomaly": 287.0537,
        "meta_ephemeris_type": 0,
        "meta_classification_type": "U",
        "meta_norad_cat_id": 31338,
        "meta_element_set_no": 999,
        "meta_rev_at_epoch": 63829,
        "meta_bstar": 0.0023341859,
        "meta_mean_motion_dot": 5.139e-05,
        "meta_mean_motion_ddot": 0,
        "tle_line1": "1 31338U 99025BQS 25358.81850034  .00005139  00000+0  23342-2 0  9998",
        "tle_line2": "2 31338  98.7165 198.6657 0072064  73.8557 287.0537 14.20844571638298"
      },
      "geometry": {
        "type": "Point",
        "coordinates": [
          -162.74029640978912,
          17.24144093630812
        ]
      }
    },
    {
      "type": "Feature",
      "properties": {
        "norad_id": 31339,
        "name": "FENGYUN 1C DEB",
        "group": "fengyun-1c-debris",
        "lat": -13.754477174239902,
        "lon": 18.598865091385967,
        "alt_km": 828.6817510565015,
        "timestamp": "2025-12-26T03:50:12.375123+00:00",
        "meta_object_name": "FENGYUN 1C DEB",
        "meta_object_id": "1999-025BQT",
        "meta_epoch": "2025-12-22T18:16:56.374176",
        "meta_mean_motion": 14.12202748,
        "meta_eccentricity": 0.0074249,
        "meta_inclination": 98.713,
        "meta_ra_of_asc_node": 13.1448,
        "meta_arg_of_pericenter": 296.4743,
        "meta_mean_anomaly": 62.8826,
        "meta_ephemeris_type": 0,
        "meta_classification_type": "U",
        "meta_norad_cat_id": 31339,
        "meta_element_set_no": 999,
        "meta_rev_at_epoch": 95819,
        "meta_bstar": 0.0008032206,
        "meta_mean_motion_dot": 1.471e-05,
        "meta_mean_motion_ddot": 0,
        "tle_line1": "1 31339U 99025BQT 25356.76176359  .00001471  00000+0  80322-3 0  9999",
        "tle_line2": "2 31339  98.7130  13.1448 0074249 296.4743  62.8826 14.12202748958196"
      },
      "geometry": {
        "type": "Point",
        "coordinates": [
          18.598865091385967,
          -13.754477174239902
        ]
      }
    },
    {
      "type": "Feature",
      "properties": {
        "norad_id": 31341,
        "name": "FENGYUN 1C DEB",
        "group": "fengyun-1c-debris",
        "lat": 3.2991779967257577,
        "lon": -136.17078167041078,
        "alt_km": 740.9566394341145,
        "timestamp": "2025-12-26T03:50:12.375133+00:00",
        "meta_object_name": "FENGYUN 1C DEB",
        "meta_object_id": "1999-025BQV",
        "meta_epoch": "2025-12-21T09:06:25.877088",
        "meta_mean_motion": 14.53401533,
        "meta_eccentricity": 0.00529379,
        "meta_inclination": 99.5547,
        "meta_ra_of_asc_node": 37.8287,
        "meta_arg_of_pericenter": 320.7191,
        "meta_mean_anomaly": 57.8941,
        "meta_ephemeris_type": 0,
        "meta_classification_type": "U",
        "meta_norad_cat_id": 31341,
        "meta_element_set_no": 999,
        "meta_rev_at_epoch": 97744,
        "meta_bstar": 0.00093378825,
        "meta_mean_motion_dot": 3.901e-05,
        "meta_mean_motion_ddot": 0,
        "tle_line1": "1 31341U 99025BQV 25355.37946617  .00003901  00000+0  93379-3 0  9996",
        "tle_line2": "2 31341  99.5547  37.8287 0052937 320.7191  57.8941 14.53401533977441"
      },
      "geometry": {
        "type": "Point",
        "coordinates": [
          -136.17078167041078,
          3.2991779967257577
        ]
      }
    },
    {
      "type": "Feature",
      "properties": {
        "norad_id": 31342,
        "name": "FENGYUN 1C DEB",
        "group": "fengyun-1c-debris",
        "lat": -41.303146026203784,
        "lon": 128.97894335332137,
        "alt_km": 715.8564724273047,
        "timestamp": "2025-12-26T03:50:12.375143+00:00",
        "meta_object_name": "FENGYUN 1C DEB",
        "meta_object_id": "1999-025BQW",
        "meta_epoch": "2025-12-25T15:06:42.465888",
        "meta_mean_motion": 14.36778501,
        "meta_eccentricity": 0.0111978,
        "meta_inclination": 98.9383,
        "meta_ra_of_asc_node": 316.3769,
        "meta_arg_of_pericenter": 181.3325,
        "meta_mean_anomaly": 178.7578,
        "meta_ephemeris_type": 0,
        "meta_classification_type": "U",
        "meta_norad_cat_id": 31342,
        "meta_element_set_no": 999,
        "meta_rev_at_epoch": 98076,
        "meta_bstar": 0.00011788,
        "meta_mean_motion_dot": 3.24e-06,
        "meta_mean_motion_ddot": 0,
        "tle_line1": "1 31342U 99025BQW 25359.62965817  .00000324  00000+0  11788-3 0  9992",
        "tle_line2": "2 31342  98.9383 316.3769 0111978 181.3325 178.7578 14.36778501980765"
      },
      "geometry": {
        "type": "Point",
        "coordinates": [
          128.97894335332137,
          -41.303146026203784
        ]
      }
    },
    {
      "type": "Feature",
      "properties": {
        "norad_id": 31346,
        "name": "FENGYUN 1C DEB",
        "group": "fengyun-1c-debris",
        "lat": 33.908154854934715,
        "lon": -36.7749394732391,
        "alt_km": 494.99696484537435,
        "timestamp": "2025-12-26T03:50:12.375154+00:00",
        "meta_object_name": "FENGYUN 1C DEB",
        "meta_object_id": "1999-025BRA",
        "meta_epoch": "2025-12-22T15:28:43.197024",
        "meta_mean_motion": 15.11348724,
        "meta_eccentricity": 0.0108825,
        "meta_inclination": 98.867,
        "meta_ra_of_asc_node": 325.1755,
        "meta_arg_of_pericenter": 342.8884,
        "meta_mean_anomaly": 16.8683,
        "meta_ephemeris_type": 0,
        "meta_classification_type": "U",
        "meta_norad_cat_id": 31346,
        "meta_element_set_no": 999,
        "meta_rev_at_epoch": 99645,
        "meta_bstar": 0.0012559476,
        "meta_mean_motion_dot": 0.00024407,
        "meta_mean_motion_ddot": 0,
        "tle_line1": "1 31346U 99025BRA 25356.64494441  .00024407  00000+0  12559-2 0  9999",
        "tle_line2": "2 31346  98.8670 325.1755 0108825 342.8884  16.8683 15.11348724996457"
      },
      "geometry": {
        "type": "Point",
        "coordinates": [
          -36.7749394732391,
          33.908154854934715
        ]
      }
    },
    {
      "type": "Feature",
      "properties": {
        "norad_id": 31348,
        "name": "FENGYUN 1C DEB",
        "group": "fengyun-1c-debris",
        "lat": -65.32950800213928,
        "lon": -27.66605349818758,
        "alt_km": 787.0661593606756,
        "timestamp": "2025-12-26T03:50:12.375164+00:00",
        "meta_object_name": "FENGYUN 1C DEB",
        "meta_object_id": "1999-025BRC",
        "meta_epoch": "2025-12-20T16:26:32.079264",
        "meta_mean_motion": 14.34088322,
        "meta_eccentricity": 0.00363564,
        "meta_inclination": 99.1201,
        "meta_ra_of_asc_node": 306.0927,
        "meta_arg_of_pericenter": 43.3211,
        "meta_mean_anomaly": 81.157,
        "meta_ephemeris_type": 0,
        "meta_classification_type": "U",
        "meta_norad_cat_id": 31348,
        "meta_element_set_no": 999,
        "meta_rev_at_epoch": 96363,
        "meta_bstar": 0.00079714977,
        "meta_mean_motion_dot": 2.198e-05,
        "meta_mean_motion_ddot": 0,
        "tle_line1": "1 31348U 99025BRC 25354.68509351  .00002198  00000+0  79715-3 0  9991",
        "tle_line2": "2 31348  99.1201 306.0927 0036356  43.3211  81.1570 14.34088322963631"
      },
      "geometry": {
        "type": "Point",
        "coordinates": [
          -27.66605349818758,
          -65.32950800213928
        ]
      }
    },
    {
      "type": "Feature",
      "properties": {
        "norad_id": 31350,
        "name": "FENGYUN 1C DEB",
        "group": "fengyun-1c-debris",
        "lat": -52.456145399251476,
        "lon": -19.16891241195433,
        "alt_km": 822.4934422265505,
        "timestamp": "2025-12-26T03:50:12.375174+00:00",
        "meta_object_name": "FENGYUN 1C DEB",
        "meta_object_id": "1999-025BRE",
        "meta_epoch": "2025-12-20T17:53:36.412512",
        "meta_mean_motion": 14.34870807,
        "meta_eccentricity": 0.00669241,
        "meta_inclination": 98.9598,
        "meta_ra_of_asc_node": 167.0621,
        "meta_arg_of_pericenter": 102.0687,
        "meta_mean_anomaly": 258.8007,
        "meta_ephemeris_type": 0,
        "meta_classification_type": "U",
        "meta_norad_cat_id": 31350,
        "meta_element_set_no": 999,
        "meta_rev_at_epoch": 70368,
        "meta_bstar": 0.00033722959,
        "meta_mean_motion_dot": 9.36e-06,
        "meta_mean_motion_ddot": 0,
        "tle_line1": "1 31350U 99025BRE 25354.74556033  .00000936  00000+0  33723-3 0  9997",
        "tle_line2": "2 31350  98.9598 167.0621 0066924 102.0687 258.8007 14.34870807703682"
      },
      "geometry": {
        "type": "Point",
        "coordinates": [
          -19.16891241195433,
          -52.456145399251476
        ]
      }
    }
  ]
}